$$SOE
2459580.500000000, A.D. 2022-Jan-01 00:00:00.0000, -2.812540595605605E+08, -4.098992851217335E+08, -1.281775774139027E+08,
2459587.500000000, A.D. 2022-Jan-08 00:00:00.0000, -2.731734003404715E+08, -4.142319998102491E+08, -1.286518580687250E+08,
2459594.500000000, A.D. 2022-Jan-15 00:00:00.0000, -2.649943200989633E+08, -4.184154043544331E+08, -1.290797652014445E+08,
2459601.500000000, A.D. 2022-Jan-22 00:00:00.0000, -2.567193201859031E+08, -4.224472935516536E+08, -1.294609294552870E+08,
2459608.500000000, A.D. 2022-Jan-29 00:00:00.0000, -2.483509493920478E+08, -4.263254775377697E+08, -1.297949897917406E+08,
2459615.500000000, A.D. 2022-Feb-05 00:00:00.0000, -2.398918069590796E+08, -4.300477831490983E+08, -1.300815935844442E+08,
2459622.500000000, A.D. 2022-Feb-12 00:00:00.0000, -2.313445434260350E+08, -4.336120564002177E+08, -1.303203970111677E+08,
2459629.500000000, A.D. 2022-Feb-19 00:00:00.0000, -2.227118606363468E+08, -4.370161637107604E+08, -1.305110654295241E+08,
2459636.500000000, A.D. 2022-Feb-26 00:00:00.0000, -2.139965122159142E+08, -4.402579926057683E+08, -1.306532736757362E+08,
2459643.500000000, A.D. 2022-Mar-05 00:00:00.0000, -2.052013043615887E+08, -4.433354525080087E+08, -1.307467063519923E+08,
2459650.500000000, A.D. 2022-Mar-12 00:00:00.0000, -1.963290967166925E+08, -4.462464756896373E+08, -1.307910581287362E+08,
2459657.500000000, A.D. 2022-Mar-19 00:00:00.0000, -1.873828032609283E+08, -4.489890183570549E+08, -1.307860340669102E+08,
2459664.500000000, A.D. 2022-Mar-26 00:00:00.0000, -1.783653931909067E+08, -4.515610618768404E+08, -1.307313499635393E+08,
2459671.500000000, A.D. 2022-Apr-02 00:00:00.0000, -1.692798917222511E+08, -4.539606142002501E+08, -1.306267327320980E+08,
2459678.500000000, A.D. 2022-Apr-09 00:00:00.0000, -1.601293805397673E+08, -4.561857114826633E+08, -1.304719208425170E+08,
2459685.500000000, A.D. 2022-Apr-16 00:00:00.0000, -1.509169975365256E+08, -4.582344192448348E+08, -1.302666648001275E+08,
2459692.500000000, A.D. 2022-Apr-23 00:00:00.0000, -1.416459371079710E+08, -4.601048319925438E+08, -1.300107274583877E+08,
2459699.500000000, A.D. 2022-Apr-30 00:00:00.0000, -1.323194528676183E+08, -4.617950735410928E+08, -1.297038841773446E+08,
2459706.500000000, A.D. 2022-May-07 00:00:00.0000, -1.229408597178829E+08, -4.633033000208331E+08, -1.293459232708140E+08,
2459713.500000000, A.D. 2022-May-14 00:00:00.0000, -1.135135338840671E+08, -4.646277025292403E+08, -1.289366466228056E+08,
2459720.500000000, A.D. 2022-May-21 00:00:00.0000, -1.040409129407708E+08, -4.657665086738883E+08, -1.284758702259179E+08,
2459727.500000000, A.D. 2022-May-28 00:00:00.0000, -9.452649630758667E+07, -4.667179839671313E+08, -1.279634246765695E+08,
2459734.500000000, A.D. 2022-Jun-04 00:00:00.0000, -8.497384593449332E+07, -4.674804333866507E+08, -1.273991556780113E+08,
2459741.500000000, A.D. 2022-Jun-11 00:00:00.0000, -7.538658702904834E+07, -4.680522031006254E+08, -1.267829245638921E+08,
2459748.500000000, A.D. 2022-Jun-18 00:00:00.0000, -6.576840878271236E+07, -4.684316823451900E+08, -1.261146088444915E+08,
2459755.500000000, A.D. 2022-Jun-25 00:00:00.0000, -5.612306506241176E+07, -4.686173054886488E+08, -1.253941027808489E+08,
2459762.500000000, A.D. 2022-Jul-02 00:00:00.0000, -4.645437492869914E+07, -4.686075543498430E+08, -1.246213180044529E+08,
2459769.500000000, A.D. 2022-Jul-09 00:00:00.0000, -3.676622258562580E+07, -4.684009605955552E+08, -1.237961842039021E+08,
2459776.500000000, A.D. 2022-Jul-16 00:00:00.0000, -2.706255681291753E+07, -4.679961071359599E+08, -1.229186497850214E+08,
2459783.500000000, A.D. 2022-Jul-23 00:00:00.0000, -1.734739207414984E+07, -4.673916284416437E+08, -1.219886822962070E+08,
2459790.500000000, A.D. 2022-Jul-30 00:00:00.0000, -7.624811211417143E+06, -4.665862131368398E+08, -1.210062689003956E+08,
2459797.500000000, A.D. 2022-Aug-06 00:00:00.0000, 2.101033878202868E+06, -4.655786082222719E+08, -1.199714171707371E+08,
2459804.500000000, A.D. 2022-Aug-13 00:00:00.0000, 1.182592276678403E+07, -4.643676221752391E+08, -1.188841559094343E+08,
2459811.500000000, A.D. 2022-Aug-20 00:00:00.0000, 2.154556665642880E+07, -4.629521274317137E+08, -1.177445358866397E+08,
2459818.500000000, A.D. 2022-Aug-27 00:00:00.0000, 3.125560825087526E+07, -4.613310629777117E+08, -1.165526305644531E+08,
2459825.500000000, A.D. 2022-Sep-03 00:00:00.0000, 4.095162159198432E+07, -4.595034371607293E+08, -1.153085368370641E+08,
2459832.500000000, A.D. 2022-Sep-10 00:00:00.0000, 5.062911195786989E+07, -4.574683306971180E+08, -1.140123757925096E+08,
2459839.500000000, A.D. 2022-Sep-17 00:00:00.0000, 6.028351585936094E+07, -4.552248998765903E+08, -1.126642934980585E+08,
2459846.500000000, A.D. 2022-Sep-24 00:00:00.0000, 6.991020120307750E+07, -4.527723800142252E+08, -1.112644618182684E+08,
2459853.500000000, A.D. 2022-Oct-01 00:00:00.0000, 7.950446786918369E+07, -4.501100891719718E+08, -1.098130792890791E+08,
2459860.500000000, A.D. 2022-Oct-08 00:00:00.0000, 8.906154911913614E+07, -4.472374316272374E+08, -1.083103720421639E+08,
2459867.500000000, A.D. 2022-Oct-15 00:00:00.0000, 9.857661290946181E+07, -4.441538998884008E+08, -1.067565945953422E+08,
2459874.500000000, A.D. 2022-Oct-22 00:00:00.0000, 1.080447609380108E+08, -4.408590769386460E+08, -1.051520304453498E+08,
2459881.500000000, A.D. 2022-Oct-29 00:00:00.0000, 1.174610279296057E+08, -4.373526412980917E+08, -1.034969929026877E+08,
2459888.500000000, A.D. 2022-Nov-05 00:00:00.0000, 1.268203832703488E+08, -4.336343721603483E+08, -1.017918261361457E+08,
2459895.500000000, A.D. 2022-Nov-12 00:00:00.0000, 1.361177330354795E+08, -4.297041533338481E+08, -1.000369061422470E+08,
2459902.500000000, A.D. 2022-Nov-19 00:00:00.0000, 1.453479217009238E+08, -4.255619769387812E+08, -9.823264165026039E+07,
2459909.500000000, A.D. 2022-Nov-26 00:00:00.0000, 1.545057338102531E+08, -4.212079472528952E+08, -9.637947501762745E+07,
2459916.500000000, A.D. 2022-Dec-03 00:00:00.0000, 1.635858957723047E+08, -4.166422847128291E+08, -9.447788312991196E+07,
2459923.500000000, A.D. 2022-Dec-10 00:00:00.0000, 1.725830778437620E+08, -4.118653300461288E+08, -9.252837830527717E+07,
2459930.500000000, A.D. 2022-Dec-17 00:00:00.0000, 1.814918963300894E+08, -4.068775485509161E+08, -9.053150920452479E+07,
2459937.500000000, A.D. 2022-Dec-24 00:00:00.0000, 1.903069161236387E+08, -4.016795345793524E+08, -8.848786175849649E+07,
2459944.500000000, A.D. 2022-Dec-31 00:00:00.0000, 1.990226539472410E+08, -3.962720161071725E+08, -8.639806013341856E+07,
2459951.500000000, A.D. 2023-Jan-07 00:00:00.0000, 2.076335824374210E+08, -3.906558584172479E+08, -8.426276766379079E+07,
2459958.500000000, A.D. 2023-Jan-14 00:00:00.0000, 2.161341331110931E+08, -3.848320663909925E+08, -8.208268752891773E+07,
2459965.500000000, A.D. 2023-Jan-21 00:00:00.0000, 2.245186975807146E+08, -3.788017885694943E+08, -7.985856336993028E+07,
2459972.500000000, A.D. 2023-Jan-28 00:00:00.0000, 2.327816306954017E+08, -3.725663231678207E+08, -7.759118019609170E+07,
2459979.500000000, A.D. 2023-Feb-04 00:00:00.0000, 2.409172554087247E+08, -3.661271230026932E+08, -7.528136531001270E+07,
2459986.500000000, A.D. 2023-Feb-11 00:00:00.0000, 2.489198675861198E+08, -3.594857995138866E+08, -7.292998909856430E+07,
2459993.500000000, A.D. 2023-Feb-18 00:00:00.0000, 2.567837406960306E+08, -3.526441266872468E+08, -7.053796574605800E+07,
2460000.500000000, A.D. 2023-Feb-25 00:00:00.0000, 2.645031306545151E+08, -3.456040450242566E+08, -6.810625390181722E+07,
2460007.500000000, A.D. 2023-Mar-04 00:00:00.0000, 2.720722809318416E+08, -3.383676655213320E+08, -6.563585730457865E+07,
2460014.500000000, A.D. 2023-Mar-11 00:00:00.0000, 2.794854279549885E+08, -3.309372736391720E+08, -6.312782536067334E+07,
2460021.500000000, A.D. 2023-Mar-18 00:00:00.0000, 2.867368068572240E+08, -3.233153332909345E+08, -6.058325367846823E+07,
2460028.500000000, A.D. 2023-Mar-25 00:00:00.0000, 2.938206577815400E+08, -3.155044908742285E+08, -5.800328457557443E+07,
2460035.500000000, A.D. 2023-Apr-01 00:00:00.0000, 3.007312331658292E+08, -3.075075789309851E+08, -5.538910755971371E+07,
2460042.500000000, A.D. 2023-Apr-08 00:00:00.0000, 3.074628053967083E+08, -2.993276181884862E+08, -5.274195962084287E+07,
2460049.500000000, A.D. 2023-Apr-15 00:00:00.0000, 3.140096724941147E+08, -2.909678190653630E+08, -5.006312520439552E+07,
2460056.500000000, A.D. 2023-Apr-22 00:00:00.0000, 3.203661636319193E+08, -2.824315856691036E+08, -4.735393627444808E+07,
2460063.500000000, A.D. 2023-Apr-29 00:00:00.0000, 3.265266472251000E+08, -2.737225200052058E+08, -4.461577252718371E+07,
2460070.500000000, A.D. 2023-May-06 00:00:00.0000, 3.324855398181003E+08, -2.648444245906458E+08, -4.185006144157858E+07,
2460077.500000000, A.D. 2023-May-13 00:00:00.0000, 3.382373147900853E+08, -2.558013043390616E+08, -3.905827814475496E+07,
2460084.500000000, A.D. 2023-May-20 00:00:00.0000, 3.437765111012009E+08, -2.465973681819475E+08, -3.624194514769222E+07,
2460091.500000000, A.D. 2023-May-27 00:00:00.0000, 3.490977422610072E+08, -2.372370304281324E+08, -3.340263196568036E+07,
2460098.500000000, A.D. 2023-Jun-03 00:00:00.0000, 3.541957055620289E+08, -2.277249118084040E+08, -3.054195462110214E+07,
2460105.500000000, A.D. 2023-Jun-10 00:00:00.0000, 3.590651915848377E+08, -2.180658401921470E+08, -2.766157502650356E+07,
2460112.500000000, A.D. 2023-Jun-17 00:00:00.0000, 3.637010940430735E+08, -2.082648510091851E+08, -2.476320025594379E+07,
2460119.500000000, A.D. 2023-Jun-24 00:00:00.0000, 3.680984202649105E+08, -1.983271872936817E+08, -2.184858172468467E+07,
2460126.500000000, A.D. 2023-Jul-01 00:00:00.0000, 3.722523025398506E+08, -1.882582984948512E+08, -1.891951422844230E+07,
2460133.500000000, A.D. 2023-Jul-08 00:00:00.0000, 3.761580086319527E+08, -1.780638372085248E+08, -1.597783461756875E+07,
2460140.500000000, A.D. 2023-Jul-15 00:00:00.0000, 3.798109501531651E+08, -1.677496566380422E+08, -1.302542021681909E+07,
$$EOE